<?xml version="1.0" encoding="UTF-8"?>
<gpx version="1.1" creator="orcas_winlink.py" xmlns="http://www.topografix.com/GPX/1/1" xmlns:xsi="http://www.w3.org/2001/XMLSchema-instance" xsi:schemaLocation="http://www.topografix.com/GPX/1/1 http://www.topografix.com/GPX/1/1/gpx.xsd">
  <metadata>
    <name>Orca incidents (orcas.pt) 2026-10-10</name>
    <desc>15 incidents, last 7 days. Source: orcas.pt</desc>
    <time>2026-10-10T21:20:30Z</time>
  </metadata>
  <wpt lat="37.76667" lon="-9.11667">
    <time>2026-10-10T14:00:00Z</time>
    <name>ORCA A 10Oct 1500</name>
    <desc>Attack 10/10/2026 15:00 local (1400Z) - SW of Port of Sines (PT)</desc>
    <sym>xmred</sym>
    <type>Attack</type>
  </wpt>
  <wpt lat="42.73437" lon="-9.06498">
    <time>2026-10-09T15:20:00Z</time>
    <name>ORCA A 09Oct 1720</name>
    <desc>Attack 09/10/2026 17:20 local (1520Z) - W of Porto do Son (SP)</desc>
    <sym>xmred</sym>
    <type>Attack</type>
  </wpt>
  <wpt lat="42.72217" lon="-9.07100">
    <time>2026-10-09T11:35:00Z</time>
    <name>ORCA A 09Oct 1335</name>
    <desc>Attack 09/10/2026 13:35 local (1135Z) - W of Porto do Son (SP)</desc>
    <sym>xmred</sym>
    <type>Attack</type>
  </wpt>
  <wpt lat="38.37278" lon="-9.17333">
    <time>2026-10-09T10:48:00Z</time>
    <name>ORCA S 09Oct 1148</name>
    <desc>Sighting 09/10/2026 11:48 local (1048Z) - SE of Farol do Cabo Espichel (PT)</desc>
    <sym>triangle</sym>
    <type>Sighting</type>
  </wpt>
  <wpt lat="40.23833" lon="-9.55000">
    <time>2026-10-07T18:30:00Z</time>
    <name>ORCA A 07Oct 1930</name>
    <desc>Attack 07/10/2026 19:30 local (1830Z) - W of Port of Figueira da Foz (PT)</desc>
    <sym>xmred</sym>
    <type>Attack</type>
  </wpt>
  <wpt lat="35.46370" lon="-6.07190">
    <time>2026-10-07T09:25:00Z</time>
    <name>ORCA S 07Oct 0925</name>
    <desc>Sighting 07/10/2026 09:25 local (0925Z) - W of Port of Asilah (MO)</desc>
    <sym>triangle</sym>
    <type>Sighting</type>
  </wpt>
  <wpt lat="43.52697" lon="-8.83763">
    <time>2026-10-06T19:00:00Z</time>
    <name>ORCA A 06Oct 2100</name>
    <desc>Attack 06/10/2026 21:00 local (1900Z) - N of Faro de Sisargas (SP)</desc>
    <sym>xmred</sym>
    <type>Attack</type>
  </wpt>
  <wpt lat="39.43683" lon="-9.50217">
    <time>2026-10-06T10:00:00Z</time>
    <name>ORCA A 06Oct 1100</name>
    <desc>Attack 06/10/2026 11:00 local (1000Z) - N of Farol das Berlengas (PT)</desc>
    <sym>xmred</sym>
    <type>Attack</type>
  </wpt>
  <wpt lat="43.32442" lon="-8.88495">
    <time>2026-10-06T06:25:00Z</time>
    <name>ORCA S 06Oct 0825</name>
    <desc>Sighting 06/10/2026 08:25 local (0625Z) - SW of Faro de Sisargas (SP)</desc>
    <sym>triangle</sym>
    <type>Sighting</type>
  </wpt>
  <wpt lat="39.35210" lon="-9.49167">
    <time>2026-10-06T07:00:00Z</time>
    <name>ORCA S 06Oct 0800</name>
    <desc>Sighting 06/10/2026 08:00 local (0700Z) - S of Farol das Berlengas (PT)</desc>
    <sym>triangle</sym>
    <type>Sighting</type>
  </wpt>
  <wpt lat="43.35035" lon="-8.93350">
    <time>2026-10-05T11:00:00Z</time>
    <name>ORCA A 05Oct 1300</name>
    <desc>Attack 05/10/2026 13:00 local (1100Z) - W of Faro de Sisargas (SP)</desc>
    <sym>xmred</sym>
    <type>Attack</type>
  </wpt>
  <wpt lat="38.70853" lon="-9.52105">
    <time>2026-10-05T07:00:00Z</time>
    <name>ORCA S 05Oct 0800</name>
    <desc>Sighting 05/10/2026 08:00 local (0700Z) - W of Farol da Guia (PT)</desc>
    <sym>triangle</sym>
    <type>Sighting</type>
  </wpt>
  <wpt lat="38.46782" lon="-9.27950">
    <time>2026-10-04T17:00:00Z</time>
    <name>ORCA A 04Oct 1800</name>
    <desc>Attack 04/10/2026 18:00 local (1700Z) - NW of Farol do Cabo Espichel (PT)</desc>
    <sym>xmred</sym>
    <type>Attack</type>
  </wpt>
  <wpt lat="42.91928" lon="-9.33513">
    <time>2026-10-04T10:00:00Z</time>
    <name>ORCA A 04Oct 1200</name>
    <desc>Attack 04/10/2026 12:00 local (1000Z) - W of Port of Fisterra (SP)</desc>
    <sym>xmred</sym>
    <type>Attack</type>
  </wpt>
  <wpt lat="38.38678" lon="-9.10447">
    <time>2026-10-04T11:00:00Z</time>
    <name>ORCA S 04Oct 1200</name>
    <desc>Sighting 04/10/2026 12:00 local (1100Z) - S of Porto de Recreio de Sesimbra (PT)</desc>
    <sym>triangle</sym>
    <type>Sighting</type>
  </wpt>
</gpx>
